NORAD_CAT_ID,OBJECT_NAME,OBJECT_TYPE,EPOCH,MEAN_MOTION,ECCENTRICITY,INCLINATION,RA_OF_ASC_NODE,ARG_OF_PERICENTER,MEAN_ANOMALY,BSTAR,MEAN_MOTION_DOT,MEAN_MOTION_DDOT,TLE_LINE0,TLE_LINE1,TLE_LINE2,SEMIMAJOR_AXIS,PERIOD,APOGEE,PERIGEE,DECAYED
52606.0,STARLINK-3928,PAYLOAD,2024-01-19 16:12:23,15.08841097,0.0001253,53.215,180.739,88.0204,272.0931,0.00028414,4.237e-05,0.0,0 STARLINK-3928,1 52606U 22052J   24019.67527688  .00004237  00000-0  28414-3 0  9993,2 52606  53.2150 180.7390 0001253  88.0204 272.0931 15.08841097 93108,6917.877,95.437,540.609,538.875,0.0
52606.0,STARLINK-3928,PAYLOAD,2024-01-20 14:27:48,15.08833011,0.0001387,53.2147,176.5754,92.9562,267.1589,3.6934e-05,3e-06,0.0,0 STARLINK-3928,1 52606U 22052J   24020.60264521  .00000300  00000-0  36934-4 0  9996,2 52606  53.2147 176.5754 0001387  92.9562 267.1589 15.08833011 93246,6917.902,95.438,540.726,538.807,0.0
52606.0,STARLINK-3928,PAYLOAD,2024-01-20 19:13:58,15.08831457,0.000132,53.2163,175.6823,95.4763,264.6379,6.2235e-05,7.03e-06,0.0,0 STARLINK-3928,1 52606U 22052J   24020.80137001  .00000703  00000-0  62235-4 0  9990,2 52606  53.2163 175.6823 0001320  95.4763 264.6379 15.08831457 93644,6917.907,95.438,540.685,538.858,0.0
52606.0,STARLINK-3928,PAYLOAD,2024-01-20 20:49:21,15.08830226,0.0001355,53.2161,175.3865,85.8983,274.2164,6.1582e-05,6.92e-06,0.0,0 STARLINK-3928,1 52606U 22052J   24020.86761189  .00000692  00000-0  61582-4 0  9997,2 52606  53.2161 175.3865 0001355  85.8983 274.2164 15.08830226 93282,6917.91,95.438,540.713,538.838,0.0
52606.0,STARLINK-3928,PAYLOAD,2024-01-21 19:04:44,15.08854655,0.000139,53.2153,171.223,84.8858,275.2292,0.00023329,3.428e-05,0.0,0 STARLINK-3928,1 52606U 22052J   24021.79495713  .00003428  00000-0  23329-3 0  9993,2 52606  53.2153 171.2230 0001390  84.8858 275.2292 15.08854655 93794,6917.836,95.437,540.662,538.739,0.0
52606.0,STARLINK-3928,PAYLOAD,2024-01-22 09:23:13,15.08838185,0.0001472,53.215,168.5479,85.9943,274.1217,0.00018634,2.679e-05,0.0,0 STARLINK-3928,1 52606U 22052J   24022.39112739  .00002679  00000-0  18634-3 0  9994,2 52606  53.2150 168.5479 0001472  85.9943 274.1217 15.08838185 93888,6917.886,95.438,540.769,538.733,0.0
52606.0,STARLINK-3928,PAYLOAD,2024-01-22 17:20:08,15.08848654,0.000146,53.2147,167.0604,86.2263,273.8896,0.00034403,5.193e-05,0.0,0 STARLINK-3928,1 52606U 22052J   24022.72232412  .00005193  00000-0  34403-3 0  9998,2 52606  53.2147 167.0604 0001460  86.2263 273.8896 15.08848654 93560,6917.854,95.437,540.729,538.709,0.0
52606.0,STARLINK-3928,PAYLOAD,2024-01-23 15:35:32,15.08845985,0.0001399,53.2158,162.8947,100.6159,259.4991,0.00024984,3.691e-05,0.0,0 STARLINK-3928,1 52606U 22052J   24023.64968276  .00003691  00000-0  24984-3 0  9998,2 52606  53.2158 162.8947 0001399 100.6159 259.4991 15.08845985 94078,6917.862,95.437,540.695,538.759,0.0
52606.0,STARLINK-3928,PAYLOAD,2024-01-24 12:15:33,15.08839731,0.0001413,53.2153,159.0312,90.0886,270.0269,0.00016244,2.298e-05,0.0,0 STARLINK-3928,1 52606U 22052J   24024.51080833  .00002298  00000-0  16244-3 0  9991,2 52606  53.2153 159.0312 0001413  90.0886 270.0269 15.08839731 94207,6917.881,95.438,540.724,538.769,0.0
52606.0,STARLINK-3928,PAYLOAD,2024-01-24 13:50:56,15.08839837,0.0001377,53.2159,158.735,92.1388,267.9762,0.00011641,1.565e-05,0.0,0 STARLINK-3928,1 52606U 22052J   24024.57704832  .00001565  00000-0  11641-3 0  9991,2 52606  53.2159 158.7350 0001377  92.1388 267.9762 15.08839837 93849,6917.881,95.438,540.698,538.793,0.0
52606.0,STARLINK-3928,PAYLOAD,2024-01-24 15:26:20,15.08842133,0.0001353,53.2165,158.4391,84.6406,275.474,9.6105e-05,1.242e-05,0.0,0 STARLINK-3928,1 52606U 22052J   24024.64328800  .00001242  00000-0  96105-4 0  9997,2 52606  53.2165 158.4391 0001353  84.6406 275.4740 15.08842133 93853,6917.874,95.437,540.675,538.803,0.0
52606.0,STARLINK-3928,PAYLOAD,2024-01-25 12:06:21,15.08835519,0.0001411,53.2177,154.5744,103.1021,257.0128,0.00012728,1.738e-05,0.0,0 STARLINK-3928,1 52606U 22052J   24025.50441316  .00001738  00000-0  12728-3 0  9999,2 52606  53.2177 154.5744 0001411 103.1021 257.0128 15.08835519 94352,6917.894,95.438,540.735,538.783,0.0
52606.0,STARLINK-3928,PAYLOAD,2024-01-25 13:41:44,15.08838885,0.0001386,53.2175,154.2765,95.0881,265.0269,3.225e-05,2.25e-06,0.0,0 STARLINK-3928,1 52606U 22052J   24025.57065200  .00000225  00000-0  32250-4 0  9993,2 52606  53.2175 154.2765 0001386  95.0881 265.0269 15.08838885 93997,6917.884,95.438,540.708,538.79,0.0
52606.0,STARLINK-3928,PAYLOAD,2024-01-25 15:17:07,15.08836733,0.0001488,53.2174,153.9792,103.7604,256.3554,9.3638e-05,1.202e-05,0.0,0 STARLINK-3928,1 52606U 22052J   24025.63689269  .00001202  00000-0  93638-4 0  9990,2 52606  53.2174 153.9792 0001488 103.7604 256.3554 15.08836733 94008,6917.89,95.438,540.785,538.726,0.0
52606.0,STARLINK-3928,PAYLOAD,2024-01-26 11:57:07,15.08847077,0.000138,53.2177,150.1133,95.9724,264.1425,0.00021848,3.192e-05,0.0,0 STARLINK-3928,1 52606U 22052J   24026.49800722  .00003192  00000-0  21848-3 0  9997,2 52606  53.2177 150.1133 0001380  95.9724 264.1425 15.08847077 94507,6917.859,95.437,540.678,538.769,0.0
52606.0,STARLINK-3928,PAYLOAD,2024-01-26 13:32:30,15.08846931,0.00013,53.2169,149.8131,86.3738,273.7403,0.00028836,4.305e-05,0.0,0 STARLINK-3928,1 52606U 22052J   24026.56424723  .00004305  00000-0  28836-3 0  9999,2 52606  53.2169 149.8131 0001300  86.3738 273.7403 15.08846931 94142,6917.859,95.437,540.624,538.825,0.0
52606.0,STARLINK-3928,PAYLOAD,2024-01-27 11:47:54,15.08844177,0.000255,53.2165,145.6471,138.2789,221.8398,6.6953e-05,7.77e-06,0.0,0 STARLINK-3928,1 52606U 22052J   24027.49160696  .00000777  00000-0  66953-4 0  9990,2 52606  53.2165 145.6471 0002550 138.2789 221.8398 15.08844177 94653,6917.868,95.437,541.497,537.969,0.0
52606.0,STARLINK-3928,PAYLOAD,2024-01-27 13:23:18,15.08839495,0.0001592,53.2172,145.355,111.3181,248.7981,5.1322e-05,5.29e-06,0.0,0 STARLINK-3928,1 52606U 22052J   24027.55785041  .00000529  00000-0  51322-4 0  9993,2 52606  53.2172 145.3550 0001592 111.3181 248.7981 15.08839495 94292,6917.882,95.438,540.848,538.646,0.0
52606.0,STARLINK-3928,PAYLOAD,2024-01-28 14:49:28,15.08842796,0.0001425,53.2168,140.5981,104.2351,255.8799,-4.197e-05,-9.56e-06,0.0,0 STARLINK-3928,1 52606U 22052J   24028.61769087 -.00000956  00000-0 -41970-4 0  9997,2 52606  53.2168 140.5981 0001425 104.2351 255.8799 15.08842796 94459,6917.872,95.437,540.723,538.751,0.0
52606.0,STARLINK-3928,PAYLOAD,2024-01-29 11:29:29,15.08843695,0.0001316,53.2163,136.733,86.3529,273.7614,0.00025697,3.805e-05,0.0,0 STARLINK-3928,1 52606U 22052J   24029.47881335  .00003805  00000-0  25697-3 0  9994,2 52606  53.2163 136.7330 0001316  86.3529 273.7614 15.08843695 94583,6917.869,95.437,540.644,538.824,0.0
52606.0,STARLINK-3928,PAYLOAD,2024-01-30 11:20:16,15.08839567,0.0001379,53.217,132.2728,80.1675,279.9473,8.6025e-05,1.081e-05,0.0,0 STARLINK-3928,1 52606U 22052J   24030.47241743  .00001081  00000-0  86025-4 0  9996,2 52606  53.2170 132.2728 0001379  80.1675 279.9473 15.08839567 95109,6917.882,95.438,540.701,538.793,0.0
52606.0,STARLINK-3928,PAYLOAD,2024-01-30 12:55:39,15.08840538,0.0001479,53.2167,131.9755,75.6486,284.467,0.0001003,1.309e-05,0.0,0 STARLINK-3928,1 52606U 22052J   24030.53865725  .00001309  00000-0  10030-3 0  9990,2 52606  53.2167 131.9755 0001479  75.6486 284.4670 15.08840538 94740,6917.879,95.438,540.767,538.721,0.0
52606.0,STARLINK-3928,PAYLOAD,2024-01-31 11:11:04,15.08839839,0.0001546,53.2165,127.8125,81.6461,278.4707,9.0986e-05,1.16e-05,0.0,0 STARLINK-3928,1 52606U 22052J   24031.46601888  .00001160  00000-0  90986-4 0  9995,2 52606  53.2165 127.8125 0001546  81.6461 278.4707 15.08839839 94889,6917.881,95.438,540.815,538.676,0.0
52606.0,STARLINK-3928,PAYLOAD,2024-02-01 11:01:50,15.08840449,0.000163,53.218,123.3496,113.5172,246.5991,0.00011428,1.531e-05,0.0,0 STARLINK-3928,1 52606U 22052J   24032.45961642  .00001531  00000-0  11428-3 0  9997,2 52606  53.2180 123.3496 0001630 113.5172 246.5991 15.08840449 95405,6917.879,95.438,540.872,538.616,0.0
52606.0,STARLINK-3928,PAYLOAD,2024-02-01 14:12:36,15.0884353,0.0001526,53.217,122.7535,111.2267,248.8888,0.00012878,1.762e-05,0.0,0 STARLINK-3928,1 52606U 22052J   24032.59209423  .00001762  00000-0  12878-3 0  9990,2 52606  53.2170 122.7535 0001526 111.2267 248.8888 15.08843530 95050,6917.87,95.437,540.79,538.679,0.0
52606.0,STARLINK-3928,PAYLOAD,2024-02-01 15:48:00,15.08844457,0.0001502,53.2169,122.4558,110.7077,249.4077,0.00013178,1.81e-05,0.0,0 STARLINK-3928,1 52606U 22052J   24032.65833344  .00001810  00000-0  13178-3 0  9990,2 52606  53.2169 122.4558 0001502 110.7077 249.4077 15.08844457 95064,6917.867,95.437,540.771,538.693,0.0
52606.0,STARLINK-3928,PAYLOAD,2024-02-02 12:28:00,15.08841671,0.0001675,53.2179,118.5875,113.8756,246.2412,0.0001018,1.333e-05,0.0,0 STARLINK-3928,1 52606U 22052J   24033.51945566  .00001333  00000-0  10180-3 0  9996,2 52606  53.2179 118.5875 0001675 113.8756 246.2412 15.08841671 95199,6917.875,95.437,540.899,538.582,0.0
52606.0,STARLINK-3928,PAYLOAD,2024-02-02 15:38:47,15.08841719,0.0001664,53.2178,117.9932,113.1336,246.9832,9.769e-05,1.267e-05,0.0,0 STARLINK-3928,1 52606U 22052J   24033.65193564  .00001267  00000-0  97690-4 0  9992,2 52606  53.2178 117.9932 0001664 113.1336 246.9832 15.08841719 95589,6917.875,95.437,540.891,538.589,0.0
52606.0,STARLINK-3928,PAYLOAD,2024-02-03 10:43:25,15.08837345,0.000167,53.2177,114.4245,109.6424,250.4749,4.9289e-05,4.96e-06,0.0,0 STARLINK-3928,1 52606U 22052J   24034.44682090  .00000496  00000-0  49289-4 0  9991,2 52606  53.2177 114.4245 0001670 109.6424 250.4749 15.08837345 95703,6917.889,95.438,540.909,538.598,0.0
52606.0,STARLINK-3928,PAYLOAD,2024-02-04 10:34:12,15.0884274,0.0001707,53.2182,109.9697,110.0101,250.1075,0.00011047,1.471e-05,0.0,0 STARLINK-3928,1 52606U 22052J   24035.44041742  .00001471  00000-0  11047-3 0  9999,2 52606  53.2182 109.9697 0001707 110.0101 250.1075 15.08842740 95487,6917.872,95.437,540.918,538.556,0.0
